OBJECT_NAME,OBJECT_ID,EPOCH,MEAN_MOTION,ECCENTRICITY,INCLINATION,RA_OF_ASC_NODE,ARG_OF_PERICENTER,MEAN_ANOMALY,EPHEMERIS_TYPE,CLASSIFICATION_TYPE,NORAD_CAT_ID,ELEMENT_SET_NO,REV_AT_EPOCH,BSTAR,MEAN_MOTION_DOT,MEAN_MOTION_DDOT
2022-023F,2022-023F,2026-07-15T14:30:11.297088,15.17980335,.0133092,63.4447,176.8777,341.6027,18.0295,0,U,51951,999,24202,.24188E-3,.5974E-4,0
OMNI-L1,2022-033A,2026-07-16T04:41:55.811040,14.82846312,.00053984,97.8391,275.8102,174.5003,185.6271,0,U,52157,999,23175,.11389386E-3,.87E-5,0
ENMAP,2022-033C,2026-07-16T06:26:53.349792,14.74942118,.0001276,97.9796,279.1043,81.8408,278.2946,0,U,52159,999,23094,.64381696E-4,.382E-5,0
ARCSAT-1,2022-033E,2026-07-16T07:06:13.920480,15.54297202,.00063218,97.2758,290.0158,94.2075,265.9902,0,U,52161,999,24022,.10403796E-3,.6702E-4,0
GLOBAL-18,2022-034B,2026-07-16T01:44:18.627648,15.47244701,.0004499,52.9819,118.4843,27.9075,332.2171,0,U,52196,999,24143,.26838998E-3,.13478E-3,0
GAOFEN-3 03,2022-035A,2026-07-16T07:10:36.909984,14.42218502,.00017548,98.4060,205.4574,88.1170,272.0221,0,U,52200,999,22504,.34931959E-4,.72E-6,0
DAQI-1,2022-039A,2026-07-16T05:59:45.102048,14.57693812,.00040253,98.1487,135.5024,144.8628,215.2837,0,U,52257,999,22617,.92127253E-4,.375E-5,0
BRO-6,2022-047AE,2026-07-16T06:55:08.131584,15.52626683,.00028176,97.3391,288.9449,304.3384,55.7603,0,U,52422,999,23566,.45353214E-3,.27865E-3,0
JILIN-1 GAOFEN 3D27,2022-048B,2026-07-16T07:16:53.323680,15.83367273,.00053812,97.5736,314.0594,241.3313,118.7415,0,U,52444,999,23407,.58856953E-3,.128703E-2,0
JILIN-1 GAOFEN 3D28,2022-048C,2026-07-16T07:02:36.190752,15.88507830,.00050536,97.5663,314.3583,240.1272,119.9498,0,U,52445,999,23413,.66455301E-3,.182926E-2,.14108159E-4
VIGORIDE-3,2022-057AE,2026-07-16T05:43:05.204352,15.27554863,.00087966,97.6643,337.9936,31.5044,328.6719,0,U,52760,999,22959,.10447425E-3,.2739E-4,0
ION SCV-006,2022-057AF,2026-07-16T04:03:06.876576,15.45933241,.00166664,97.6134,347.1999,14.2475,345.9240,0,U,52761,999,23059,.1336952E-3,.6441E-4,0
SHERPA-AC1,2022-057AH,2026-07-15T23:35:40.856928,15.36638019,.00071234,97.6720,347.4225,0.7991,359.3262,0,U,52763,999,23012,.11622857E-3,.4072E-4,0
OMNI-L2,2022-057AR,2026-07-16T04:00:19.118880,14.81438973,.00057505,97.4701,257.5766,216.8309,143.2510,0,U,52771,999,22468,.8060357E-4,.584E-5,0
STEP CUBE LAB-II,2022-065D,2026-07-16T08:00:03.633696,14.63343845,.00073635,98.2262,341.1509,298.2481,61.7977,0,U,52897,999,21576,.74969461E-4,.339E-5,0
RANDEV,2022-065E,2026-07-16T07:50:29.708736,14.63732711,.00067421,98.2247,341.5087,299.0541,60.9985,0,U,52898,999,21551,.89010887E-4,.415E-5,0
SNUGLITE-II,2022-065F,2026-07-16T03:20:35.405088,14.64394991,.00062091,98.2236,341.9245,297.0732,62.9836,0,U,52899,999,21523,.84639846E-4,.399E-5,0
MIMAN,2022-065G,2026-07-16T03:18:53.507520,14.61872138,.00063949,98.2297,339.4805,300.2945,59.7623,0,U,52900,999,21467,.53100023E-4,.218E-5,0
STARLINK-4362,2022-077A,2026-07-16T05:47:42.594144,15.05652958,.00012788,97.2857,14.6332,99.9759,260.1613,0,U,53043,999,22025,.39026851E-4,.507E-5,0
LARES-2,2022-080A,2026-07-11T06:32:52.952640,6.38965058,.00051703,70.1562,297.0691,331.4390,28.5953,0,U,53105,999,9320,0,-.16E-6,0
GREENCUBE (IO-117),2022-080E,2026-07-16T06:55:09.765408,6.42583343,.00090797,70.1408,288.1261,283.0875,76.8771,0,U,53109,999,9393,0,-.3E-7,0
STARLINK-4410,2022-084R,2026-07-16T06:00:02.000160,15.41686622,.00009597,97.6002,259.3773,91.1074,43.3673,0,U,53204,999,586,-.10053923E-2,-.42215E-3,0
COSMOS 2558,2022-089A,2026-07-16T04:22:07.893120,15.81888741,.0004177,97.2243,302.5687,225.4783,134.6145,0,U,53323,999,22240,.48431E-3,.98456E-3,0
TECMS,2022-090A,2026-07-16T07:05:49.744032,15.21236833,.00054852,97.3125,264.5783,82.4494,277.7365,0,U,53346,999,21923,.83169762E-4,.179E-4,0
DONGPO 01,2022-098K,2026-07-16T07:47:26.507040,15.78302331,.00030601,97.5624,331.6306,204.5755,155.5366,0,U,53453,999,21934,.46262644E-3,.79726E-3,0
STARLINK-4400,2022-099D,2026-07-16T05:17:48.676992,15.05658204,.00016007,97.2839,314.6946,127.5000,232.6374,0,U,53468,999,21531,.35219045E-4,.452E-5,0
