2022-023F               
1 51951U 22023F   26196.60429742  .00005974  00000+0  24188-3 0  9998
2 51951  63.4447 176.8777 0133092 341.6027  18.0295 15.17980335242022
OMNI-L1                 
1 52157U 22033A   26197.19578485  .00000870  00000+0  11389-3 0  9991
2 52157  97.8391 275.8102 0005398 174.5003 185.6271 14.82846312231756
ENMAP                   
1 52159U 22033C   26197.26867303  .00000382  00000+0  64382-4 0  9991
2 52159  97.9796 279.1043 0001276  81.8408 278.2946 14.74942118230949
ARCSAT-1                
1 52161U 22033E   26197.29599445  .00006702  00000+0  10404-3 0  9993
2 52161  97.2758 290.0158 0006321  94.2075 265.9902 15.54297202240229
GLOBAL-18               
1 52196U 22034B   26197.07243782  .00013478  00000+0  26839-3 0  9995
2 52196  52.9819 118.4843 0004499  27.9075 332.2171 15.47244701241432
GAOFEN-3 03             
1 52200U 22035A   26197.29903831  .00000072  00000+0  34932-4 0  9994
2 52200  98.4060 205.4574 0001754  88.1170 272.0221 14.42218502225045
DAQI-1                  
1 52257U 22039A   26197.24982757  .00000375  00000+0  92127-4 0  9995
2 52257  98.1487 135.5024 0004025 144.8628 215.2837 14.57693812226176
BRO-6                   
1 52422U 22047AE  26197.28828856  .00027865  00000+0  45353-3 0  9992
2 52422  97.3391 288.9449 0002817 304.3384  55.7603 15.52626683235668
JILIN-1 GAOFEN 3D27     
1 52444U 22048B   26197.30339495  .00128703  00000+0  58857-3 0  9992
2 52444  97.5736 314.0594 0005381 241.3313 118.7415 15.83367273234076
JILIN-1 GAOFEN 3D28     
1 52445U 22048C   26197.29347443  .00182926  14108-4  66455-3 0  9992
2 52445  97.5663 314.3583 0005053 240.1272 119.9498 15.88507830234135
VIGORIDE-3              
1 52760U 22057AE  26197.23825468  .00002739  00000+0  10447-3 0  9998
2 52760  97.6643 337.9936 0008796  31.5044 328.6719 15.27554863229593
ION SCV-006             
1 52761U 22057AF  26197.16882959  .00006441  00000+0  13370-3 0  9991
2 52761  97.6134 347.1999 0016666  14.2475 345.9240 15.45933241230596
SHERPA-AC1              
1 52763U 22057AH  26196.98311177  .00004072  00000+0  11623-3 0  9998
2 52763  97.6720 347.4225 0007123   0.7991 359.3262 15.36638019230122
OMNI-L2                 
1 52771U 22057AR  26197.16688795  .00000584  00000+0  80604-4 0  9991
2 52771  97.4701 257.5766 0005750 216.8309 143.2510 14.81438973224682
STEP CUBE LAB-II        
1 52897U 22065D   26197.33337539  .00000339  00000+0  74969-4 0  9990
2 52897  98.2262 341.1509 0007363 298.2481  61.7977 14.63343845215767
RANDEV                  
1 52898U 22065E   26197.32673274  .00000415  00000+0  89011-4 0  9998
2 52898  98.2247 341.5087 0006742 299.0541  60.9985 14.63732711215519
SNUGLITE-II             
1 52899U 22065F   26197.13929867  .00000399  00000+0  84640-4 0  9994
2 52899  98.2236 341.9245 0006209 297.0732  62.9836 14.64394991215237
MIMAN                   
1 52900U 22065G   26197.13811930  .00000218  00000+0  53100-4 0  9995
2 52900  98.2297 339.4805 0006394 300.2945  59.7623 14.61872138214675
STARLINK-4362           
1 53043U 22077A   26197.24146521  .00000507  00000+0  39027-4 0  9999
2 53043  97.2857  14.6332 0001278  99.9759 260.1613 15.05652958220256
LARES-2                 
1 53105U 22080A   26192.27283510 -.00000016  00000+0  00000+0 0  9990
2 53105  70.1562 297.0691 0005170 331.4390  28.5953  6.38965058 93203
GREENCUBE (IO-117)      
1 53109U 22080E   26197.28830747 -.00000003  00000+0  00000+0 0  9996
2 53109  70.1408 288.1261 0009079 283.0875  76.8771  6.42583343 93934
STARLINK-4410           
1 53204U 22084R   26197.25002315 -.00042215  00000+0 -10054-2 0  9990
2 53204  97.6002 259.3773 0000959  91.1074  43.3673 15.41686622  5867
COSMOS 2558             
1 53323U 22089A   26197.18203580  .00098456  00000+0  48431-3 0  9993
2 53323  97.2243 302.5687 0004177 225.4783 134.6145 15.81888741222401
TECMS                   
1 53346U 22090A   26197.29571463  .00001790  00000+0  83170-4 0  9995
2 53346  97.3125 264.5783 0005485  82.4494 277.7365 15.21236833219236
DONGPO 01               
1 53453U 22098K   26197.32461235  .00079726  00000+0  46263-3 0  9996
2 53453  97.5624 331.6306 0003060 204.5755 155.5366 15.78302331219347
STARLINK-4400           
1 53468U 22099D   26197.22070228  .00000452  00000+0  35219-4 0  9990
2 53468  97.2839 314.6946 0001600 127.5000 232.6374 15.05658204215316
